start=new Date('2023-02-09T00:00:00.000Z').valueOf();
sats=[{"MEAN_ANOMALY":"280.4996","EPHEMERIS_TYPE":"0","EPOCH":"2023-02-08T19:57:11.870496","BSTAR":"0.00046648000000","SEMIMAJOR_AXIS":"6925.347","CENTER_NAME":"EARTH","OBJECT_ID":"2021-018BF","TIME_SYSTEM":"UTC","MEAN_MOTION":"15.06400665","RCS_SIZE":"LARGE","MEAN_ELEMENT_THEORY":"SGP4","APOAPSIS":"547.961","TLE_LINE2":"2 47840  53.0499 241.3064 0001082  79.6115 280.4996 15.06400665107330","OBJECT_NAME":"STARLINK-2432","MEAN_MOTION_DOT":"0.00006674","PERIAPSIS":"546.462","CLASSIFICATION_TYPE":"U","ECCENTRICITY":"0.00010820","SITE":"AFETR","LAUNCH_DATE":"2021-03-11","NORAD_CAT_ID":"47840","PERIOD":"95.592","OBJECT_TYPE":"PAYLOAD","REF_FRAME":"TEME","COUNTRY_CODE":"US","RA_OF_ASC_NODE":"241.3064","FILE":"3780893","REV_AT_EPOCH":"10733","GP_ID":"224858367","ELEMENT_SET_NO":"999","INCLINATION":"53.0499","TLE_LINE1":"1 47840U 21018BF  23039.83138739  .00006674  00000-0  46648-3 0  9998","DECAY_DATE":null,"MEAN_MOTION_DDOT":"0.0000000000000","ARG_OF_PERICENTER":"79.6115"},{"DECAY_DATE":null,"MEAN_MOTION_DDOT":"0.0000000000000","ARG_OF_PERICENTER":"77.9189","INCLINATION":"53.0519","TLE_LINE1":"1 47841U 21018BG  23039.82771315  .00007133  00000-0  49718-3 0  9993","FILE":"3780893","REV_AT_EPOCH":"10733","GP_ID":"224858118","ELEMENT_SET_NO":"999","RA_OF_ASC_NODE":"241.3200","COUNTRY_CODE":"US","OBJECT_TYPE":"PAYLOAD","REF_FRAME":"TEME","LAUNCH_DATE":"2021-03-11","NORAD_CAT_ID":"47841","PERIOD":"95.592","CLASSIFICATION_TYPE":"U","PERIAPSIS":"546.441","ECCENTRICITY":"0.00010920","SITE":"AFETR","MEAN_MOTION_DOT":"0.00007133","OBJECT_NAME":"STARLINK-2433","RCS_SIZE":"LARGE","APOAPSIS":"547.953","MEAN_ELEMENT_THEORY":"SGP4","TLE_LINE2":"2 47841  53.0519 241.3200 0001092  77.9189 282.1923 15.06405456107331","BSTAR":"0.00049718000000","CENTER_NAME":"EARTH","SEMIMAJOR_AXIS":"6925.332","OBJECT_ID":"2021-018BG","TIME_SYSTEM":"UTC","MEAN_MOTION":"15.06405456","EPHEMERIS_TYPE":"0","EPOCH":"2023-02-08T19:51:54.416160","MEAN_ANOMALY":"282.1923"},{"RA_OF_ASC_NODE":"271.0914","ELEMENT_SET_NO":"999","FILE":"3780893","REV_AT_EPOCH":"10697","GP_ID":"224856866","OBJECT_TYPE":"PAYLOAD","REF_FRAME":"TEME","COUNTRY_CODE":"US","INCLINATION":"53.0508","TLE_LINE1":"1 47842U 21018BH  23039.88022420 -.00001128  00000-0 -56858-4 0  9990","MEAN_MOTION_DDOT":"0.0000000000000","ARG_OF_PERICENTER":"102.6299","DECAY_DATE":null,"TIME_SYSTEM":"UTC","MEAN_MOTION":"15.06393100","BSTAR":"-0.00005685800000","OBJECT_ID":"2021-018BH","SEMIMAJOR_AXIS":"6925.370","CENTER_NAME":"EARTH","TLE_LINE2":"2 47842  53.0508 271.0914 0000914 102.6299 257.4792 15.06393100106972","RCS_SIZE":"LARGE","MEAN_ELEMENT_THEORY":"SGP4","APOAPSIS":"547.868","MEAN_ANOMALY":"257.4792","EPOCH":"2023-02-08T21:07:31.370880","EPHEMERIS_TYPE":"0","SITE":"AFETR","ECCENTRICITY":"0.00009140","CLASSIFICATION_TYPE":"U","PERIAPSIS":"546.602","NORAD_CAT_ID":"47842","PERIOD":"95.593","LAUNCH_DATE":"2021-03-11","OBJECT_NAME":"STARLINK-2434","MEAN_MOTION_DOT":"-0.00001128"},{"COUNTRY_CODE":"US","REF_FRAME":"TEME","OBJECT_TYPE":"PAYLOAD","ELEMENT_SET_NO":"999","GP_ID":"224857616","REV_AT_EPOCH":"10701","FILE":"3780893","RA_OF_ASC_NODE":"265.9120","MEAN_MOTION_DDOT":"0.0000000000000","ARG_OF_PERICENTER":"92.2632","DECAY_DATE":null,"TLE_LINE1":"1 47843U 21018BJ  23039.91938577  .00001864  00000-0  14401-3 0  9996","INCLINATION":"53.0515","EPOCH":"2023-02-08T22:03:54.930528","EPHEMERIS_TYPE":"0","MEAN_ANOMALY":"267.8500","TLE_LINE2":"2 47843  53.0515 265.9120 0001254  92.2632 267.8500 15.06397837107014","MEAN_ELEMENT_THEORY":"SGP4","APOAPSIS":"548.089","RCS_SIZE":"LARGE","MEAN_MOTION":"15.06397837","TIME_SYSTEM":"UTC","OBJECT_ID":"2021-018BJ","SEMIMAJOR_AXIS":"6925.355","CENTER_NAME":"EARTH","BSTAR":"0.00014401000000","MEAN_MOTION_DOT":"0.00001864","OBJECT_NAME":"STARLINK-2435","PERIOD":"95.592","NORAD_CAT_ID":"47843","LAUNCH_DATE":"2021-03-11","ECCENTRICITY":"0.00012540","SITE":"AFETR","PERIAPSIS":"546.352","CLASSIFICATION_TYPE":"U"},{"GP_ID":"224857868","FILE":"3780893","REV_AT_EPOCH":"10706","ELEMENT_SET_NO":"999","RA_OF_ASC_NODE":"260.9163","COUNTRY_CODE":"US","REF_FRAME":"TEME","OBJECT_TYPE":"PAYLOAD","DECAY_DATE":null,"MEAN_MOTION_DDOT":"0.0000000000000","ARG_OF_PERICENTER":"76.1752","TLE_LINE1":"1 47844U 21018BK  23039.91800576  .00002330  00000-0  17528-3 0  9996","INCLINATION":"53.0518","APOAPSIS":"547.984","MEAN_ELEMENT_THEORY":"SGP4","RCS_SIZE":"LARGE","TLE_LINE2":"2 47844  53.0518 260.9163 0001079  76.1752 283.9357 15.06392577107069","SEMIMAJOR_AXIS":"6925.371","OBJECT_ID":"2021-018BK","CENTER_NAME":"EARTH","BSTAR":"0.00017528000000","MEAN_MOTION":"15.06392577","TIME_SYSTEM":"UTC","EPHEMERIS_TYPE":"0","EPOCH":"2023-02-08T22:01:55.697664","MEAN_ANOMALY":"283.9357","LAUNCH_DATE":"2021-03-11","PERIOD":"95.593","NORAD_CAT_ID":"47844","PERIAPSIS":"546.489","CLASSIFICATION_TYPE":"U","ECCENTRICITY":"0.00010790","SITE":"AFETR","MEAN_MOTION_DOT":"0.00002330","OBJECT_NAME":"STARLINK-2446"},{"TIME_SYSTEM":"UTC","MEAN_MOTION":"15.06397905","BSTAR":"0.00010794000000","SEMIMAJOR_AXIS":"6925.355","OBJECT_ID":"2021-018BL","CENTER_NAME":"EARTH","TLE_LINE2":"2 47845  53.0521 261.1313 0001191  88.1829 271.9296 15.06397905107066","RCS_SIZE":"LARGE","MEAN_ELEMENT_THEORY":"SGP4","APOAPSIS":"548.045","MEAN_ANOMALY":"271.9296","EPOCH":"2023-02-08T20:52:55.392384","EPHEMERIS_TYPE":"0","SITE":"AFETR","ECCENTRICITY":"0.00011910","CLASSIFICATION_TYPE":"U","PERIAPSIS":"546.395","NORAD_CAT_ID":"47845","PERIOD":"95.592","LAUNCH_DATE":"2021-03-11","OBJECT_NAME":"STARLINK-2453","MEAN_MOTION_DOT":"0.00001327","RA_OF_ASC_NODE":"261.1313","ELEMENT_SET_NO":"999","FILE":"3780893","REV_AT_EPOCH":"10706","GP_ID":"224858618","OBJECT_TYPE":"PAYLOAD","REF_FRAME":"TEME","COUNTRY_CODE":"US","INCLINATION":"53.0521","TLE_LINE1":"1 47845U 21018BL  23039.87008556  .00001327  00000-0  10794-3 0  9993","MEAN_MOTION_DDOT":"0.0000000000000","ARG_OF_PERICENTER":"88.1829","DECAY_DATE":null},{"MEAN_ANOMALY":"261.3420","EPHEMERIS_TYPE":"0","EPOCH":"2023-02-08T22:21:47.404224","OBJECT_ID":"2021-018BM","SEMIMAJOR_AXIS":"6925.332","CENTER_NAME":"EARTH","BSTAR":"0.00022929000000","MEAN_MOTION":"15.06405378","TIME_SYSTEM":"UTC","MEAN_ELEMENT_THEORY":"SGP4","APOAPSIS":"547.854","RCS_SIZE":"LARGE","TLE_LINE2":"2 47846  53.0518 260.8408 0000948  98.7676 261.3420 15.06405378107123","OBJECT_NAME":"STARLINK-2456","MEAN_MOTION_DOT":"0.00003136","CLASSIFICATION_TYPE":"U","PERIAPSIS":"546.541","ECCENTRICITY":"0.00009480","SITE":"AFETR","LAUNCH_DATE":"2021-03-11","PERIOD":"95.592","NORAD_CAT_ID":"47846","REF_FRAME":"TEME","OBJECT_TYPE":"PAYLOAD","COUNTRY_CODE":"US","RA_OF_ASC_NODE":"260.8408","GP_ID":"224857366","FILE":"3780893","REV_AT_EPOCH":"10712","ELEMENT_SET_NO":"999","TLE_LINE1":"1 47846U 21018BM  23039.93179866  .00003136  00000-0  22929-3 0  9997","INCLINATION":"53.0518","DECAY_DATE":null,"MEAN_MOTION_DDOT":"0.0000000000000","ARG_OF_PERICENTER":"98.7676"},{"REF_FRAME":"TEME","OBJECT_TYPE":"PAYLOAD","COUNTRY_CODE":"US","RA_OF_ASC_NODE":"291.1166","GP_ID":"224857118","FILE":"3780893","REV_AT_EPOCH":"10641","ELEMENT_SET_NO":"999","TLE_LINE1":"1 47860U 21021A   23039.87100830  .00014850  00000-0  10137-2 0  9997","INCLINATION":"53.0539","DECAY_DATE":null,"MEAN_MOTION_DDOT":"0.0000000000000","ARG_OF_PERICENTER":"92.0794","MEAN_ANOMALY":"268.0329","EPHEMERIS_TYPE":"0","EPOCH":"2023-02-08T20:54:15.117120","SEMIMAJOR_AXIS":"6925.343","OBJECT_ID":"2021-021A","CENTER_NAME":"EARTH","BSTAR":"0.00101370000000","MEAN_MOTION":"15.06401900","TIME_SYSTEM":"UTC","MEAN_ELEMENT_THEORY":"SGP4","APOAPSIS":"548.021","RCS_SIZE":"LARGE","TLE_LINE2":"2 47860  53.0539 291.1166 0001174  92.0794 268.0329 15.06401900106410","OBJECT_NAME":"STARLINK-2258","MEAN_MOTION_DOT":"0.00014850","CLASSIFICATION_TYPE":"U","PERIAPSIS":"546.395","SITE":"AFETR","ECCENTRICITY":"0.00011740","LAUNCH_DATE":"2021-03-14","PERIOD":"95.592","NORAD_CAT_ID":"47860"},{"DECAY_DATE":null,"MEAN_MOTION_DDOT":"0.0000000000000","ARG_OF_PERICENTER":"96.0592","INCLINATION":"53.0536","TLE_LINE1":"1 47861U 21021B   23039.88897842 -.00002270  00000-0 -13359-3 0  9990","COUNTRY_CODE":"US","OBJECT_TYPE":"PAYLOAD","REF_FRAME":"TEME","REV_AT_EPOCH":"10673","FILE":"3780893","GP_ID":"224858369","ELEMENT_SET_NO":"999","RA_OF_ASC_NODE":"276.0348","MEAN_MOTION_DOT":"-0.00002270","OBJECT_NAME":"STARLINK-2280","LAUNCH_DATE":"2021-03-14","NORAD_CAT_ID":"47861","PERIOD":"95.593","PERIAPSIS":"546.403","CLASSIFICATION_TYPE":"U","ECCENTRICITY":"0.00012110","SITE":"AFETR","EPHEMERIS_TYPE":"0","EPOCH":"2023-02-08T21:20:07.735488","MEAN_ANOMALY":"264.0535","RCS_SIZE":"LARGE","APOAPSIS":"548.081","MEAN_ELEMENT_THEORY":"SGP4","TLE_LINE2":"2 47861  53.0536 276.0348 0001211  96.0592 264.0535 15.06390749106732","BSTAR":"-0.00013359000000","SEMIMAJOR_AXIS":"6925.377","CENTER_NAME":"EARTH","OBJECT_ID":"2021-021B","TIME_SYSTEM":"UTC","MEAN_MOTION":"15.06390749"},{"OBJECT_NAME":"STARLINK-2291","MEAN_MOTION_DOT":"0.00000778","CLASSIFICATION_TYPE":"U","PERIAPSIS":"546.282","SITE":"AFETR","ECCENTRICITY":"0.00013700","LAUNCH_DATE":"2021-03-14","PERIOD":"95.593","NORAD_CAT_ID":"47862","MEAN_ANOMALY":"244.7657","EPHEMERIS_TYPE":"0","EPOCH":"2023-02-08T20:51:36.044352","SEMIMAJOR_AXIS":"6925.366","CENTER_NAME":"EARTH","OBJECT_ID":"2021-021C","BSTAR":"0.00007110400000","MEAN_MOTION":"15.06394295","TIME_SYSTEM":"UTC","MEAN_ELEMENT_THEORY":"SGP4","APOAPSIS":"548.180","RCS_SIZE":"LARGE","TLE_LINE2":"2 47862  53.0520 271.1391 0001370 115.3474 244.7657 15.06394295106796","TLE_LINE1":"1 47862U 21021C   23039.86916718  .00000778  00000-0  71104-4 0  9995","INCLINATION":"53.0520","DECAY_DATE":null,"MEAN_MOTION_DDOT":"0.0000000000000","ARG_OF_PERICENTER":"115.3474","REF_FRAME":"TEME","OBJECT_TYPE":"PAYLOAD","COUNTRY_CODE":"US","RA_OF_ASC_NODE":"271.1391","GP_ID":"224858120","REV_AT_EPOCH":"10679","FILE":"3780893","ELEMENT_SET_NO":"999"}];
